KAITUO 1B               
1 40912U 15049P   18005.85533566  .00001178  00000-0  60572-4 0  9991
2 40912  97.4507  15.5264 0014330 211.3379 232.4497 15.18351653127032
TIANWANG 1C (TW-1C)     
1 40926U 15051B   18005.85971383  .00006586  00000-0  13421-3 0  9990
2 40926  97.2049  49.0612 0011693 142.9796 303.4796 15.46500856128209
TIANWANG 1B (TW-1B)     
1 40927U 15051C   18005.81970854  .00006641  00000-0  14083-3 0  9996
2 40927  97.2138  48.9419 0011213 153.7209 293.8388 15.45333906128128
TIANWANG 1A (TW-1A)     
1 40928U 15051D   18005.82905817  .00002895  00000-0  80123-4 0  9991
2 40928  97.2047  42.9496 0011831 179.6273 234.8074 15.37734052127822
LAPAN-A2 (IO-86)        
1 40931U 15052B   18005.07229423  .00000693  00000-0  74340-5 0  9994
2 40931   5.9957 233.2519 0013007 223.9089 136.0008 14.76561263122850
LQSAT                   
1 40958U 15057A   18005.74803214  .00000015  00000-0  10088-4 0  9994
2 40958  97.9596  82.3197 0019127 134.0618 226.2161 14.73010369120935
CHUBUSAT-2              
1 41338U 16012B   18005.14013998  .00000309  00000-0  17442-4 0  9992
2 41338  31.0033 269.4971 0014041 258.5794 101.3264 14.99900145103338
CHUBUSAT-3              
1 41339U 16012C   18005.77343086  .00000289  00000-0  15738-4 0  9999
2 41339  31.0093 264.3032 0013823 271.5282  88.3776 15.00093327103410
OUFTI-1                 
1 41458U 16025C   18005.81327092  .00001688  00000-0  92898-4 0  9995
2 41458  98.1596  59.8478 0170605 332.2855  26.9324 15.04128508 93024
E-ST@R-II               
1 41459U 16025D   18005.79339422  .00001563  00000-0  86774-4 0  9991
2 41459  98.1618  59.7255 0171273 333.1201  26.1195 15.03904335 93015
AAUSAT 4                
1 41460U 16025E   18005.71604528  .00001685  00000-0  92560-4 0  9992
2 41460  98.1534  59.9210 0163015 330.3974  28.8043 15.05131960 93040
NUSAT 1 (LO-87)         
1 41557U 16033B   18005.77036745  .00001162  00000-0  45371-4 0  9992
2 41557  97.4490  90.2294 0014309  18.6367 341.5394 15.27889793 89354
BEESAT-4                
1 41619U 16040W   18005.73099599  .00001276  00000-0  59493-4 0  9997
2 41619  97.4378  70.9808 0013389  81.6558 278.6195 15.21636220 73387
PRATHAM                 
1 41783U 16059A   18005.41905685  .00000048  00000-0  18722-4 0  9992
2 41783  98.1417  69.4156 0032502 245.5887 114.1923 14.62892233 68169
ALSAT 1N                
1 41789U 16059G   18005.71793688  .00000100  00000-0  28278-4 0  9995
2 41789  98.1422  70.6084 0027068 237.4506 122.4078 14.64116962 68246
NAYIF-1 (EO-88)         
1 42017U 17008BX  18005.60918014  .00001405  00000-0  61138-4 0  9996
2 42017  97.4707  71.4982 0005429 220.4280 139.6554 15.23916990 49303
LILACSAT-1              
1 42725U 98067ME  18005.73684094  .00014535  00000-0  16563-3 0  9997
2 42725  51.6382 102.1136 0005334 343.4612  16.6208 15.62501118 35066
MAX VALIER SAT          
1 42778U 17036P   18005.76290393  .00000866  00000-0  42175-4 0  9991
2 42778  97.4269  68.0026 0011143 279.3467  80.6508 15.20958460 29814
FOX-1B (AO-91)          
1 43017U 17073E   18005.52496780  .00000562  00000-0  49121-4 0  9992
2 43017  97.6962 303.5723 0262043  81.1387 281.9394 14.77824378  7086
